{
    "links": {
        "self": "http://www.neowsapp.com/rest/v1/neo/3651206?api_key=iIulBulltgU6a56xZRHN4H3l9WmuAYTsLGpBGhQ2"
    },
    "id": "3651206",
    "neo_reference_id": "3651206",
    "name": "(2013 UC)",
    "designation": "2013 UC",
    "nasa_jpl_url": "http://ssd.jpl.nasa.gov/sbdb.cgi?sstr=3651206",
    "absolute_magnitude_h": 21.8,
    "estimated_diameter": {
        "kilometers": {
            "estimated_diameter_min": 0.1160259082,
            "estimated_diameter_max": 0.2594418179
        },
        "meters": {
            "estimated_diameter_min": 116.0259082094,
            "estimated_diameter_max": 259.4418179074
        },
        "miles": {
            "estimated_diameter_min": 0.0720951346,
            "estimated_diameter_max": 0.1612096218
        },
        "feet": {
            "estimated_diameter_min": 380.6624406898,
            "estimated_diameter_max": 851.1870938635
        }
    },
    "is_potentially_hazardous_asteroid": false,
    "close_approach_data": [
        {
            "close_approach_date": "1996-10-18",
            "close_approach_date_full": "1996-Oct-18 16:41",
            "epoch_date_close_approach": 845656860000,
            "relative_velocity": {
                "kilometers_per_second": "5.0853465472",
                "kilometers_per_hour": "18307.2475700168",
                "miles_per_hour": "11375.4116914919"
            },
            "miss_distance": {
                "astronomical": "0.2970451068",
                "lunar": "115.5505465452",
                "kilometers": "44437315.271202516",
                "miles": "27612067.3209500808"
            },
            "orbiting_body": "Earth"
        },
        {
            "close_approach_date": "2013-10-27",
            "close_approach_date_full": "2013-Oct-27 00:10",
            "epoch_date_close_approach": 1382832600000,
            "relative_velocity": {
                "kilometers_per_second": "4.2065241149",
                "kilometers_per_hour": "15143.4868136733",
                "miles_per_hour": "9409.5737926405"
            },
            "miss_distance": {
                "astronomical": "0.2319678305",
                "lunar": "90.2354860645",
                "kilometers": "34701893.351321035",
                "miles": "21562756.650198883"
            },
            "orbiting_body": "Earth"
        },
        {
            "close_approach_date": "2057-10-16",
            "close_approach_date_full": "2057-Oct-16 12:06",
            "epoch_date_close_approach": 2770459560000,
            "relative_velocity": {
                "kilometers_per_second": "5.7865548851",
                "kilometers_per_hour": "20831.5975863858",
                "miles_per_hour": "12943.9446224962"
            },
            "miss_distance": {
                "astronomical": "0.3668092765",
                "lunar": "142.6888085585",
                "kilometers": "54873886.460641055",
                "miles": "34097051.945334359"
            },
            "orbiting_body": "Earth"
        }
    ],
    "orbital_data": {
        "orbit_id": "21",
        "orbit_determination_date": "2017-04-06 08:44:07",
        "first_observation_date": "2013-10-16",
        "last_observation_date": "2014-01-01",
        "data_arc_in_days": 77,
        "observations_used": 68,
        "orbit_uncertainty": "5",
        "minimum_orbit_intersection": ".221309",
        "jupiter_tisserand_invariant": "3.465",
        "epoch_osculation": "2459000.5",
        "eccentricity": ".4647922687534863",
        "semi_major_axis": "2.257115688574332",
        "inclination": "6.180145736885406",
        "ascending_node_longitude": "239.216476934734",
        "orbital_period": "1238.594525193321",
        "perihelion_distance": "1.208025766842781",
        "perihelion_argument": "150.550865254851",
        "aphelion_distance": "3.306205610305883",
        "perihelion_time": "2459059.050075932532",
        "mean_anomaly": "342.9823021925422",
        "mean_motion": ".290652019428078",
        "equinox": "J2000",
        "orbit_class": {
            "orbit_class_type": "AMO",
            "orbit_class_description": "Near-Earth asteroid orbits similar to that of 1221 Amor",
            "orbit_class_range": "1.017 AU < q (perihelion) < 1.3 AU"
        }
    },
    "is_sentry_object": false
}